[{"OBJECT_NAME":"OBJECT C","OBJECT_ID":"2022-023C","EPOCH":"2026-03-09T22:57:27.819936","MEAN_MOTION":15.18202357,"ECCENTRICITY":0.00963055,"INCLINATION":63.4862,"RA_OF_ASC_NODE":247.9876,"ARG_OF_PERICENTER":349.5574,"MEAN_ANOMALY":10.3536,"EPHEMERIS_TYPE":0,"CLASSIFICATION_TYPE":"U","NORAD_CAT_ID":51948,"ELEMENT_SET_NO":999,"REV_AT_EPOCH":22265,"BSTAR":0.00022353772,"MEAN_MOTION_DOT":4.943e-5,"MEAN_MOTION_DDOT":0},{"OBJECT_NAME":"STARLINK-35062","OBJECT_ID":"2025-210X","EPOCH":"2026-03-09T22:32:02.136768","MEAN_MOTION":15.30208,"ECCENTRICITY":7.216e-5,"INCLINATION":53.1578,"RA_OF_ASC_NODE":305.6064,"ARG_OF_PERICENTER":90.7382,"MEAN_ANOMALY":269.3701,"EPHEMERIS_TYPE":0,"CLASSIFICATION_TYPE":"U","NORAD_CAT_ID":65643,"ELEMENT_SET_NO":999,"REV_AT_EPOCH":2777,"BSTAR":0.00082936397,"MEAN_MOTION_DOT":0.00024291,"MEAN_MOTION_DDOT":0}]
